{"spkid": "54342522", "covariance": {"labels": ["e", "q", "tp", "node", "peri", "i"], "data": [["4.89006182915051E-15", "-8.776000207705868E-15", "-1.85367408791813E-12", "-1.343681390832422E-12", "2.674699048391451E-13", "-7.345507580471729E-14"], ["-8.776000207705868E-15", "1.593901734726366E-14", "3.007373842050687E-12", "2.509708129341561E-12", "-6.181057767674185E-13", "1.344020170247222E-13"], ["-1.85367408791813E-12", "3.007373842050687E-12", "1.367979893844198E-9", "1.177589898156111E-10", "4.301449278031513E-10", "1.794148383279876E-11"], ["-1.343681390832422E-12", "2.509708129341561E-12", "1.177589898156111E-10", "8.157580736874811E-8", "-8.125191701867327E-8", "1.287241238383703E-9"], ["2.674699048391451E-13", "-6.181057767674185E-13", "4.301449278031513E-10", "-8.125191701867327E-8", "8.123412267416983E-8", "-1.270451957021548E-9"], ["-7.345507580471729E-14", "1.344020170247222E-13", "1.794148383279876E-11", "1.287241238383703E-9", "-1.270451957021548E-9", "3.593319874657605E-11"]], "elements": [{"label": "e", "units": null, "title": "eccentricity", "value": ".5074918974589858", "sigma": 6.9928977034921e-08, "name": "e"}, {"label": "q", "name": "q", "sigma": 1.26249821177155e-07, "title": "perihelion distance", "value": ".9166188880606793", "units": "au"}, {"units": "TDB", "title": "time of perihelion passage", "value": "2459138.878347760731", "sigma": 3.69862122127178e-05, "name": "tp", "label": "tp"}, {"units": "deg", "title": "longitude of the ascending node", "value": "97.40917965590113", "sigma": 0.00028561478842796, "name": "om", "label": "node"}, {"label": "peri", "value": "142.3375378337013", "title": "argument of perihelion", "units": "deg", "name": "w", "sigma": 0.000285016004242165}, {"units": "deg", "value": "3.118982458057923", "title": "inclination", "sigma": 5.99443064407088e-06, "name": "i", "label": "i"}], "epoch": "2459586.5"}, "elements": [{"label": "e", "sigma": "6.8758E-8", "name": "e", "units": null, "title": "eccentricity", "value": ".5067851494664601"}, {"units": "au", "value": "1.861011005014543", "title": "semi-major axis", "name": "a", "sigma": "2.9843E-8", "label": "a"}, {"name": "q", "sigma": "1.2389E-7", "title": "perihelion distance", "value": ".9178782646795204", "units": "au", "label": "q"}, {"label": "i", "sigma": "6.0328E-6", "name": "i", "value": "3.122162418146492", "title": "inclination; angle with respect to x-y ecliptic plane", "units": "deg"}, {"label": "node", "value": "97.32296302757638", "title": "longitude of the ascending node", "units": "deg", "sigma": ".00028461", "name": "om"}, {"label": "peri", "sigma": ".00028403", "name": "w", "units": "deg", "title": "argument of perihelion", "value": "142.5935901492038"}, {"sigma": "1.0825E-5", "name": "ma", "units": "deg", "title": "mean anomaly", "value": "79.83394975861651", "label": "M"}, {"label": "tp", "title": "time of perihelion passage", "value": "2460994.860303387106", "units": "TDB", "sigma": "2.4956E-5", "name": "tp"}, {"label": "period", "name": "per", "sigma": "2.2305E-5", "value": "927.3033716166824", "title": "sidereal orbital period", "units": "d"}, {"sigma": "9.3383E-9", "name": "n", "value": ".3882224642107874", "title": "mean motion", "units": "deg/d", "label": "n"}, {"sigma": "4.4967E-8", "name": "ad", "units": "au", "value": "2.804143745349565", "title": "aphelion distance", "label": "Q"}], "epoch": "2461200.5"}